[{"OBJECT_NAME":"STARLINK-3553","OBJECT_ID":"2022-022Q","EPOCH":"2026-03-09T02:24:12.753504","MEAN_MOTION":15.08840706,"ECCENTRICITY":0.00013372,"INCLINATION":53.2194,"RA_OF_ASC_NODE":11.6232,"ARG_OF_PERICENTER":87.3208,"MEAN_ANOMALY":272.7937,"EPHEMERIS_TYPE":0,"CLASSIFICATION_TYPE":"U","NORAD_CAT_ID":51866,"ELEMENT_SET_NO":999,"REV_AT_EPOCH":22302,"BSTAR":-2.2099268e-5,"MEAN_MOTION_DOT":-6.4e-6,"MEAN_MOTION_DDOT":0},{"OBJECT_NAME":"COSMOS 397 DEB","OBJECT_ID":"1971-015AK","EPOCH":"2026-03-09T22:58:31.009440","MEAN_MOTION":13.69427816,"ECCENTRICITY":0.06260381,"INCLINATION":65.6843,"RA_OF_ASC_NODE":28.4631,"ARG_OF_PERICENTER":58.8288,"MEAN_ANOMALY":307.261,"EPHEMERIS_TYPE":0,"CLASSIFICATION_TYPE":"U","NORAD_CAT_ID":5156,"ELEMENT_SET_NO":999,"REV_AT_EPOCH":65184,"BSTAR":0.001612721,"MEAN_MOTION_DOT":5.69e-5,"MEAN_MOTION_DDOT":0}]
